{"type": "FeatureCollection", "features": [ {"type": "Feature", "properties": {"norad_id": 66579, "name": "STARLINK-35868", "group": "last-30-days", "lat": 39.05083004984167, "lon": -170.3957941403171, "alt_km": 409.9101981040876, "timestamp": "2025-12-11T08:58:25.854777+00:00", "meta": {"OBJECT_NAME": "STARLINK-35868", "OBJECT_ID": "2025-268Y", "EPOCH": "2025-12-11T04:00:01.998720", "MEAN_MOTION": 15.50607344, "ECCENTRICITY": 0.0001681, "INCLINATION": 43.0004, "RA_OF_ASC_NODE": 130.2912, "ARG_OF_PERICENTER": 266.9997, "MEAN_ANOMALY": 82.4439, "EPHEMERIS_TYPE": 0, "CLASSIFICATION_TYPE": "U", "NORAD_CAT_ID": 66579, "ELEMENT_SET_NO": 999, "REV_AT_EPOCH": 441, "BSTAR": -0.001602, "MEAN_MOTION_DOT": -0.00093309, "MEAN_MOTION_DDOT": 0}, "tle": {"line1": "1 66579U 25268Y   25345.16668980 -.00093309  00000+0 -16020-2 0  9995", "line2": "2 66579  43.0004 130.2912 0001681 266.9997  82.4439 15.50607344  4412"}}, "geometry": {"type": "Point", "coordinates": [-170.3957941403171, 39.05083004984167]}}, {"type": "Feature", "properties": {"norad_id": 66580, "name": "STARLINK-35872", "group": "last-30-days", "lat": 39.67107172134822, "lon": -168.05168639592185, "alt_km": 409.75263515573806, "timestamp": "2025-12-11T08:58:25.854788+00:00", "meta": {"OBJECT_NAME": "STARLINK-35872", "OBJECT_ID": "2025-268Z", "EPOCH": "2025-12-11T04:00:01.998720", "MEAN_MOTION": 15.50606008, "ECCENTRICITY": 0.0001578, "INCLINATION": 43.0005, "RA_OF_ASC_NODE": 130.2869, "ARG_OF_PERICENTER": 268.4255, "MEAN_ANOMALY": 82.9355, "EPHEMERIS_TYPE": 0, "CLASSIFICATION_TYPE": "U", "NORAD_CAT_ID": 66580, "ELEMENT_SET_NO": 999, "REV_AT_EPOCH": 441, "BSTAR": -0.0015695, "MEAN_MOTION_DOT": -0.00091435, "MEAN_MOTION_DDOT": 0}, "tle": {"line1": "1 66580U 25268Z   25345.16668980 -.00091435  00000+0 -15695-2 0  9992", "line2": "2 66580  43.0005 130.2869 0001578 268.4255  82.9355 15.50606008  4413"}}, "geometry": {"type": "Point", "coordinates": [-168.05168639592185, 39.67107172134822]}}, {"type": "Feature", "properties": {"norad_id": 66581, "name": "STARLINK-35744", "group": "last-30-days", "lat": 40.225650418197155, "lon": -165.74377463685428, "alt_km": 409.79559820146824, "timestamp": "2025-12-11T08:58:25.854798+00:00", "meta": {"OBJECT_NAME": "STARLINK-35744", "OBJECT_ID": "2025-268AA", "EPOCH": "2025-12-11T04:00:01.998720", "MEAN_MOTION": 15.5047599, "ECCENTRICITY": 0.0001557, "INCLINATION": 43.0005, "RA_OF_ASC_NODE": 130.282, "ARG_OF_PERICENTER": 261.9805, "MEAN_ANOMALY": 91.2997, "EPHEMERIS_TYPE": 0, "CLASSIFICATION_TYPE": "U", "NORAD_CAT_ID": 66581, "ELEMENT_SET_NO": 999, "REV_AT_EPOCH": 436, "BSTAR": 0.0023911, "MEAN_MOTION_DOT": 0.00141986, "MEAN_MOTION_DDOT": 0}, "tle": {"line1": "1 66581U 25268AA  25345.16668980  .00141986  00000+0  23911-2 0  9998", "line2": "2 66581  43.0005 130.2820 0001557 261.9805  91.2997 15.50475990  4360"}}, "geometry": {"type": "Point", "coordinates": [-165.74377463685428, 40.225650418197155]}}, {"type": "Feature", "properties": {"norad_id": 66582, "name": "STARLINK-35746", "group": "last-30-days", "lat": 40.76507200409475, "lon": -163.24464125808663, "alt_km": 409.71090772062234, "timestamp": "2025-12-11T08:58:25.854808+00:00", "meta": {"OBJECT_NAME": "STARLINK-35746", "OBJECT_ID": "2025-268AB", "EPOCH": "2025-12-11T04:00:01.998720", "MEAN_MOTION": 15.50601311, "ECCENTRICITY": 0.000173, "INCLINATION": 43.0004, "RA_OF_ASC_NODE": 130.2764, "ARG_OF_PERICENTER": 268.215, "MEAN_ANOMALY": 86.9813, "EPHEMERIS_TYPE": 0, "CLASSIFICATION_TYPE": "U", "NORAD_CAT_ID": 66582, "ELEMENT_SET_NO": 999, "REV_AT_EPOCH": 441, "BSTAR": -0.0014502, "MEAN_MOTION_DOT": -0.00084575, "MEAN_MOTION_DDOT": 0}, "tle": {"line1": "1 66582U 25268AB  25345.16668980 -.00084575  00000+0 -14502-2 0  9997", "line2": "2 66582  43.0004 130.2764 0001730 268.2150  86.9813 15.50601311  4415"}}, "geometry": {"type": "Point", "coordinates": [-163.24464125808663, 40.76507200409475]}}, {"type": "Feature", "properties": {"norad_id": 66583, "name": "STARLINK-35941", "group": "last-30-days", "lat": 41.236036420492844, "lon": -160.78146388863556, "alt_km": 409.65755932150296, "timestamp": "2025-12-11T08:58:25.854818+00:00", "meta": {"OBJECT_NAME": "STARLINK-35941", "OBJECT_ID": "2025-268AC", "EPOCH": "2025-12-11T04:00:01.998720", "MEAN_MOTION": 15.50603554, "ECCENTRICITY": 0.0001745, "INCLINATION": 43.0004, "RA_OF_ASC_NODE": 130.2717, "ARG_OF_PERICENTER": 267.8528, "MEAN_ANOMALY": 89.2615, "EPHEMERIS_TYPE": 0, "CLASSIFICATION_TYPE": "U", "NORAD_CAT_ID": 66583, "ELEMENT_SET_NO": 999, "REV_AT_EPOCH": 441, "BSTAR": -0.0015037, "MEAN_MOTION_DOT": -0.00087657, "MEAN_MOTION_DDOT": 0}, "tle": {"line1": "1 66583U 25268AC  25345.16668980 -.00087657  00000+0 -15037-2 0  9996", "line2": "2 66583  43.0004 130.2717 0001745 267.8528  89.2615 15.50603554  4411"}}, "geometry": {"type": "Point", "coordinates": [-160.78146388863556, 41.236036420492844]}}, {"type": "Feature", "properties": {"norad_id": 66584, "name": "STARLINK-35939", "group": "last-30-days", "lat": 41.67195431638101, "lon": -158.1642657932993, "alt_km": 409.39810921742173, "timestamp": "2025-12-11T08:58:25.854831+00:00", "meta": {"OBJECT_NAME": "STARLINK-35939", "OBJECT_ID": "2025-268AD", "EPOCH": "2025-12-11T04:00:01.998720", "MEAN_MOTION": 15.50749479, "ECCENTRICITY": 0.0001596, "INCLINATION": 43.0003, "RA_OF_ASC_NODE": 130.2678, "ARG_OF_PERICENTER": 267.328, "MEAN_ANOMALY": 91.729, "EPHEMERIS_TYPE": 0, "CLASSIFICATION_TYPE": "U", "NORAD_CAT_ID": 66584, "ELEMENT_SET_NO": 999, "REV_AT_EPOCH": 441, "BSTAR": -0.0060242, "MEAN_MOTION_DOT": -0.00340884, "MEAN_MOTION_DDOT": 0}, "tle": {"line1": "1 66584U 25268AD  25345.16668980 -.00340884  00000+0 -60242-2 0  9999", "line2": "2 66584  43.0003 130.2678 0001596 267.3280  91.7290 15.50749479  4415"}}, "geometry": {"type": "Point", "coordinates": [-158.1642657932993, 41.67195431638101]}}, {"type": "Feature", "properties": {"norad_id": 66585, "name": "STARLINK-35963", "group": "last-30-days", "lat": 42.014896167895756, "lon": -155.76715664930472, "alt_km": 409.4391414461652, "timestamp": "2025-12-11T08:58:25.854865+00:00", "meta": {"OBJECT_NAME": "STARLINK-35963", "OBJECT_ID": "2025-268AE", "EPOCH": "2025-12-11T04:00:01.998720", "MEAN_MOTION": 15.50605031, "ECCENTRICITY": 0.0001562, "INCLINATION": 43.0005, "RA_OF_ASC_NODE": 130.2629, "ARG_OF_PERICENTER": 263.9487, "MEAN_ANOMALY": 96.9964, "EPHEMERIS_TYPE": 0, "CLASSIFICATION_TYPE": "U", "NORAD_CAT_ID": 66585, "ELEMENT_SET_NO": 999, "REV_AT_EPOCH": 441, "BSTAR": -0.0015175, "MEAN_MOTION_DOT": -0.00088452, "MEAN_MOTION_DDOT": 0}, "tle": {"line1": "1 66585U 25268AE  25345.16668980 -.00088452  00000+0 -15175-2 0  9995", "line2": "2 66585  43.0005 130.2629 0001562 263.9487  96.9964 15.50605031  4418"}}, "geometry": {"type": "Point", "coordinates": [-155.76715664930472, 42.014896167895756]}}, {"type": "Feature", "properties": {"norad_id": 66586, "name": "TJS-21", "group": "last-30-days", "lat": 59.315176036915254, "lon": -139.35811970408173, "alt_km": 35080.72418557687, "timestamp": "2025-12-11T08:58:25.854882+00:00", "meta": {"OBJECT_NAME": "TJS-21", "OBJECT_ID": "2025-269A", "EPOCH": "2025-12-09T17:35:27.978144", "MEAN_MOTION": 2.00565752, "ECCENTRICITY": 0.68056573, "INCLINATION": 63.268, "RA_OF_ASC_NODE": 162.6671, "ARG_OF_PERICENTER": 269.7843, "MEAN_ANOMALY": 18.6559, "EPHEMERIS_TYPE": 0, "CLASSIFICATION_TYPE": "U", "NORAD_CAT_ID": 66586, "ELEMENT_SET_NO": 999, "REV_AT_EPOCH": 37, "BSTAR": -0.041606579, "MEAN_MOTION_DOT": 1.08e-05, "MEAN_MOTION_DDOT": 0}, "tle": {"line1": "1 66586U 25269A   25343.73296271  .00001080  00000+0 -41607-1 0  9997", "line2": "2 66586  63.2680 162.6671 6805657 269.7843  18.6559  2.00565752   379"}}, "geometry": {"type": "Point", "coordinates": [-139.35811970408173, 59.315176036915254]}}, {"type": "Feature", "properties": {"norad_id": 66587, "name": "CZ-3B R/B", "group": "last-30-days", "lat": 19.368608488567187, "lon": -173.73418877763618, "alt_km": 30587.724489047465, "timestamp": "2025-12-11T08:58:25.854896+00:00", "meta": {"OBJECT_NAME": "CZ-3B R/B", "OBJECT_ID": "2025-269B", "EPOCH": "2025-12-10T07:44:42.689184", "MEAN_MOTION": 2.03033273, "ECCENTRICITY": 0.7519666, "INCLINATION": 51.3444, "RA_OF_ASC_NODE": 170.2038, "ARG_OF_PERICENTER": 228.2816, "MEAN_ANOMALY": 37.6674, "EPHEMERIS_TYPE": 0, "CLASSIFICATION_TYPE": "U", "NORAD_CAT_ID": 66587, "ELEMENT_SET_NO": 999, "REV_AT_EPOCH": 40, "BSTAR": 0.0011971, "MEAN_MOTION_DOT": 0.00055207, "MEAN_MOTION_DDOT": 9.8045e-07}, "tle": {"line1": "1 66587U 25269B   25344.32271631  .00055207  98045-6  11971-2 0  9991", "line2": "2 66587  51.3444 170.2038 7519666 228.2816  37.6674  2.03033273   405"}}, "geometry": {"type": "Point", "coordinates": [-173.73418877763618, 19.368608488567187]}}, {"type": "Feature", "properties": {"norad_id": 66588, "name": "STARLINK-36076", "group": "last-30-days", "lat": -29.46884369532223, "lon": 163.3973847379447, "alt_km": 419.7331479942568, "timestamp": "2025-12-11T08:58:25.854908+00:00", "meta": {"OBJECT_NAME": "STARLINK-36076", "OBJECT_ID": "2025-270A", "EPOCH": "2025-12-11T04:00:01.998720", "MEAN_MOTION": 15.50661257, "ECCENTRICITY": 6.31e-05, "INCLINATION": 42.9996, "RA_OF_ASC_NODE": 201.938, "ARG_OF_PERICENTER": 245.0271, "MEAN_ANOMALY": 350.9897, "EPHEMERIS_TYPE": 0, "CLASSIFICATION_TYPE": "U", "NORAD_CAT_ID": 66588, "ELEMENT_SET_NO": 999, "REV_AT_EPOCH": 414, "BSTAR": -0.035794, "MEAN_MOTION_DOT": -0.0189293, "MEAN_MOTION_DDOT": 0}, "tle": {"line1": "1 66588U 25270A   25345.16668980 -.01892930  00000+0 -35794-1 0  9994", "line2": "2 66588  42.9996 201.9380 0000631 245.0271 350.9897 15.50661257  4146"}}, "geometry": {"type": "Point", "coordinates": [163.3973847379447, -29.46884369532223]}}]}